SL-14 R/B               
1 18749U 88001B   21235.58942719  .00000096  00000-0  88878-5 0  9993
2 18749  82.5157 312.6592 0017638 317.6799 164.3889 14.83270380795921
COSMOS 1933             
1 18958U 88020A   21235.55991602  .00000508  00000-0  34669-4 0  9994
2 18958  82.5272  68.2578 0012715 117.7176 242.5341 15.03978554800029
SL-3 R/B                
1 19046U 88032B   21235.58191049  .00000684  00000-0  54468-4 0  9990
2 19046  97.3860 243.0321 0037028 173.0648 187.1098 15.02973897801867
SL-16 R/B               
1 19120U 88039B   21235.59684728  .00000133  00000-0  86299-4 0  9998
2 19120  71.0171 335.3764 0021965 358.6545   1.4517 14.19225410722965
COSMOS 1953             
1 19210U 88050A   21235.41718771  .00000238  00000-0  14147-4 0  9997
2 19210  82.5203 350.4200 0014282  85.4646 274.8212 15.06352384786687
SL-8 R/B                
1 19257U 88053B   21235.39478144  .00000082  00000-0  35961-4 0  9999
2 19257  74.0480 286.7246 0019894 162.1173 209.1370 14.37529522738073
COSMOS 1975             
1 19573U 88093A   21235.57403693 -.00000038  00000-0 -47170-5 0  9990
2 19573  82.5203 305.5193 0015658 126.4814 233.7858 15.05243124768468
SL-14 R/B               
1 19574U 88093B   21235.23139623  .00000093  00000-0  82914-5 0  9997
2 19574  82.5345 156.2879 0022988 116.2905  36.0535 14.83381255754879
SL-16 R/B               
1 19650U 88102B   21235.59601614 -.00000253  00000-0 -10439-3 0  9997
2 19650  71.0000  41.1944 0013891   7.4576 352.6751 14.15806941692044
INTERCOSMOS 24          
1 20261U 89080A   21235.58772640 -.00000092  00000-0 -34452-4 0  9993
2 20261  82.6002 100.6266 1202417 170.5874 192.0156 12.56209570458256
SL-14 R/B               
1 20262U 89080C   21235.51804780  .00000110  00000-0  27685-4 0  9997
2 20262  82.5960 157.1848 1237563  12.0330 350.7644 12.48978455452490
DELTA 2 R/B(1)          
1 20303U 89085B   21235.50732857  .00002827  00000-0  87389-4 0  9996
2 20303  35.6418 172.1161 0088060  63.1596 297.8104 15.29667215734748
DELTA 1 R/B             
1 20323U 89089B   21235.48044520  .00000033  00000-0  18010-4 0  9994
2 20323  97.1211 319.3512 0070470 312.9378  46.5920 14.48413559655408
ARIANE 40 R/B           
1 20443U 90005H   21235.43861041  .00000033  00000-0  25489-4 0  9995
2 20443  98.5242 301.2071 0011381 131.7321 228.4841 14.38139598654208
DELTA 2 R/B(1)          
1 20453U 90008B   21235.41674090  .00002118  00000-0  11707-3 0  9996
2 20453  35.6241 226.9606 0276789 313.8173  43.9958 14.86773778675490
COSMOS 2058             
1 20465U 90010A   21235.39156834  .00000224  00000-0  16535-4 0  9991
2 20465  82.4881 217.6263 0015289 178.7529 181.3736 14.98256059692994
SL-14 R/B               
1 20466U 90010B   21235.49422234  .00000066  00000-0  53734-5 0  9990
2 20466  82.5040  22.4308 0020508   2.6555 357.4763 14.81434051682693
SL-14 R/B               
1 20511U 90018B   21235.52363384  .00000081  00000-0  75357-5 0  9995
2 20511  82.5258 330.7232 0018514 137.2733 233.5404 14.80088397698121
HST                     
1 20580U 90037B   21235.60270743  .00000567  00000-0  23273-4 0  9995
2 20580  28.4709 340.7517 0002910  67.7331 312.2271 15.09710370521158
SL-16 R/B               
1 20625U 90046B   21235.53906342  .00000148  00000-0  10137-3 0  9997
2 20625  70.9984 181.2556 0016021 301.0888  58.8662 14.14667728613977
COSMOS 2084             
1 20663U 90055A   21235.22518390  .00000152  00000-0  32213-4 0  9992
2 20663  62.7939 166.3117 0080280  16.1012 344.2605 14.92289440687782
SL-6 R/B(2)             
1 20666U 90055D   21235.27284844  .00000084  00000-0  25411-4 0  9990
2 20666  62.7842  81.4822 0106436  42.2567 318.6667 14.92542503689748
SL-8 R/B                
1 20775U 90078B   21235.42221325  .00001974  00000-0  95507-4 0  9990
2 20775  82.9241 229.9280 0564404 294.8703  59.4822 14.36267353567690
SL-8 R/B                
1 21088U 91006B   21235.61736212  .00000044  00000-0  29436-4 0  9992
2 21088  82.9451 323.9119 0022529   4.8991 109.5666 13.77175632535692
OKEAN-3                 
1 21397U 91039A   21235.59086495  .00000263  00000-0  22589-4 0  9994
2 21397  82.5221 125.8823 0018152 158.4613 201.7375 14.93141803616729
COSMOS 2151             
1 21422U 91042A   21235.43726625  .00000227  00000-0  19709-4 0  9996
2 21422  82.4984 231.6135 0012936 225.1726 134.8443 14.92285086615234
SL-14 R/B               
1 21423U 91042B   21235.53963106  .00000078  00000-0  73647-5 0  9991
2 21423  82.4967 333.0578 0016097 284.9903  74.9528 14.79837585607563
ERS-1                   
1 21574U 91050A   21235.37305578  .00000023  00000-0  22471-4 0  9990
2 21574  98.6528 196.3127 0034171  83.2536 277.2538 14.37810223577184
ARIANE 40 R/B           
1 21610U 91050F   21235.17580462  .00000029  00000-0  22524-4 0  9991
2 21610  98.4194 304.9202 0004117  57.6666 322.8718 14.40960257579871
INTERCOSMOS 25          
1 21819U 91086A   21235.43037598  .00000573  00000-0  10759-3 0  9997
2 21819  82.5792 227.4057 1517184  71.3938 304.5486 12.05281935296329
SL-8 R/B                
1 21876U 92008B   21235.47467031 -.00000022  00000-0 -38372-4 0  9991
2 21876  82.9239  61.3117 0036109  87.8982 290.8187 13.75682523481278
SL-8 R/B                
1 21938U 92020B   21235.46017595  .00000015  00000-0 -16019-6 0  9996
2 21938  82.9304 305.8332 0028023 247.0648 123.1351 13.75292280473055
COSMOS 2219             
1 22219U 92076A   21235.41861555  .00000265  00000-0  16475-3 0  9997
2 22219  71.0581 245.3271 0019370 219.7304 140.2401 14.13667302483853
SL-16 R/B               
1 22220U 92076B   21235.62076619  .00000244  00000-0  14666-3 0  9998
2 22220  70.9995  81.8382 0010774 106.3211 313.6142 14.16473724486874
COSMOS 2221             
1 22236U 92080A   21235.47924519  .00000191  00000-0  18112-4 0  9996
2 22236  82.5059  55.3840 0015855 332.3586  27.6787 14.88086585533512
SL-16 R/B               
1 22285U 92093B   21235.42781779  .00000272  00000-0  16498-3 0  9992
2 22285  71.0190 246.2607 0005905 302.3820  57.6731 14.15063092478406
COSMOS 2228             
1 22286U 92094A   21235.36763163  .00000207  00000-0  19593-4 0  9992
2 22286  82.5218  12.2425 0022648  86.8538 273.5271 14.88311734528680
SL-16 R/B               
1 22566U 93016B   21235.33819968 -.00000292  00000-0 -12605-3 0  9992
2 22566  71.0071  99.1798 0011898 318.9013  41.1213 14.14975675467428
COSMOS 2242             
1 22626U 93024A   21235.52270575  .00000206  00000-0  19529-4 0  9990
2 22626  82.5209  40.4024 0020448  86.5576 273.7980 14.88161975533091
SL-16 R/B               
1 22803U 93059B   21235.33991198  .00000223  00000-0  13482-3 0  9995
2 22803  70.9886 269.0914 0018723 223.8760 136.0878 14.16841780444471
ARIANE 40 R/B           
1 22830U 93061H   21235.20386192  .00000000  00000-0  16899-4 0  9995
2 22830  98.7085 292.9668 0011841 132.3953 227.8233 14.31488364456595
COSMOS 2278             
1 23087U 94023A   21235.46980183 -.00000331  00000-0 -14972-3 0  9995
2 23087  71.0540  44.6482 0007610  27.0978 333.0540 14.13832546410509
SL-16 R/B               
1 23088U 94023B   21235.56965175 -.00000263  00000-0 -11205-3 0  9991
2 23088  71.0008 314.1347 0005585 286.7114  73.3395 14.14689686411429
SL-16 R/B               
1 23343U 94074B   21235.42265553  .00000038  00000-0  12560-4 0  9993
2 23343  97.9407 289.0143 0006590 187.0235 183.6232 14.76895383442173
SL-16 R/B               
1 23405U 94077B   21235.41651669  .00000257  00000-0  15688-3 0  9997
2 23405  70.9803 242.1908 0002927 210.5180 149.5773 14.15241755381458
ERS-2                   
1 23560U 95021A   21235.56443348  .00001066  00000-0  47572-4 0  9995
2 23560  98.5413  95.0116 0004345 125.0484 235.1158 15.24128089407916
ARIANE 40+ R/B          
1 23561U 95021B   21235.40203501  .00000037  00000-0  27117-4 0  9994
2 23561  98.6694 285.8357 0007874  58.4779 319.7023 14.38040972380650
SL-16 R/B               
1 23705U 95058B   21235.26276015  .00000154  00000-0  10379-3 0  9999
2 23705  71.0221  62.9508 0010869 135.7031 224.4963 14.15154578333062
SL-16 R/B               
1 24298U 96051B   21235.57927190 -.00000152  00000-0 -55832-4 0  9996
2 24298  70.8251  79.3521 0013259  69.1600 291.0939 14.12424731287378
ORBVIEW 2 (SEASTAR)     
1 24883U 97037A   21235.57019255  .00000045  00000-0  32212-4 0  9991
2 24883  98.6494 353.5836 0001189 264.3647  95.7401 14.33629009270621
SL-16 R/B               
1 25400U 98043G   21235.53659744 -.00000013  00000-0  12819-4 0  9991
2 25400  98.6410 170.4028 0010373 150.4644 209.7124 14.25480788202579
SL-16 R/B               
1 25407U 98045B   21235.58270076  .00000202  00000-0  12703-3 0  9992
2 25407  71.0105  69.4087 0006558  19.4243 340.7129 14.15839902192241
ISS (ZARYA)             
1 25544U 98067A   21235.72155500  .00001492  00000-0  35804-4 0  9998
2 25544  51.6453   8.7543 0002758 304.7967 149.6500 15.48506473299065
CZ-4B R/B               
1 25732U 99025C   21235.39336606 -.00000025  00000-0  98450-5 0  9992
2 25732  98.8979 271.9835 0038243  59.7059 311.1401 14.17697878153021
OKEAN-O                 
1 25860U 99039A   21235.33973592  .00000054  00000-0  15293-4 0  9998
2 25860  98.1791 266.9886 0000861  80.0185 280.1121 14.76754147189256
SL-16 R/B               
1 25861U 99039B   21235.50225067  .00000036  00000-0  12494-4 0  9995
2 25861  98.2033 252.1668 0014987 205.9422 316.1043 14.78657198191467
DELTA 2 R/B             
1 25876U 99041E   21235.43834819  .00000163  00000-0  68300-4 0  9995
2 25876  51.7651  44.7718 0531617 164.0608 197.7797 14.04607955129330
HELIOS 1B               
1 25977U 99064A   21235.51498934  .00000030  00000-0  10870-4 0  9997
2 25977  98.3209  52.6885 0002238  62.0699 298.0740 14.82575463439139
TERRA                   
1 25994U 99068A   21235.53295681  .00000070  00000-0  25441-4 0  9990
2 25994  98.1724 308.7165 0001417  99.3998  14.5711 14.57132466153111
